{"type": "FeatureCollection", "features": [ {"type": "Feature", "properties": {"norad_id": 33492, "name": "GOSAT (IBUKI)", "group": "resource", "lat": 74.59822063151458, "lon": -54.493008197301094, "alt_km": 661.1301926970791, "timestamp": "2025-12-11T20:41:14.743943+00:00", "meta": {"OBJECT_NAME": "GOSAT (IBUKI)", "OBJECT_ID": "2009-002A", "EPOCH": "2025-12-11T13:40:25.815072", "MEAN_MOTION": 14.67551658, "ECCENTRICITY": 9.456e-05, "INCLINATION": 98.0769, "RA_OF_ASC_NODE": 94.1893, "ARG_OF_PERICENTER": 90.8306, "MEAN_ANOMALY": 269.3007, "EPHEMERIS_TYPE": 0, "CLASSIFICATION_TYPE": "U", "NORAD_CAT_ID": 33492, "ELEMENT_SET_NO": 999, "REV_AT_EPOCH": 90394, "BSTAR": 0.0002657682, "MEAN_MOTION_DOT": 1.46e-05, "MEAN_MOTION_DDOT": 0}, "tle": {"line1": "1 33492U 09002A   25345.56974323  .00001460  00000+0  26577-3 0  9990", "line2": "2 33492  98.0769  94.1893 0000945  90.8306 269.3007 14.67551658903940"}}, "geometry": {"type": "Point", "coordinates": [-54.493008197301094, 74.59822063151458]}}, {"type": "Feature", "properties": {"norad_id": 35681, "name": "DEIMOS-1", "group": "resource", "lat": 22.0623747581464, "lon": -30.344440756064373, "alt_km": 644.6325527164663, "timestamp": "2025-12-11T20:41:14.743954+00:00", "meta": {"OBJECT_NAME": "DEIMOS-1", "OBJECT_ID": "2009-041A", "EPOCH": "2025-12-11T15:05:27.271104", "MEAN_MOTION": 14.74951002, "ECCENTRICITY": 0.00027329, "INCLINATION": 97.7151, "RA_OF_ASC_NODE": 146.2837, "ARG_OF_PERICENTER": 81.6258, "MEAN_ANOMALY": 278.5262, "EPHEMERIS_TYPE": 0, "CLASSIFICATION_TYPE": "U", "NORAD_CAT_ID": 35681, "ELEMENT_SET_NO": 999, "REV_AT_EPOCH": 87923, "BSTAR": 0.00022273716, "MEAN_MOTION_DOT": 1.449e-05, "MEAN_MOTION_DDOT": 0}, "tle": {"line1": "1 35681U 09041A   25345.62878786  .00001449  00000+0  22274-3 0  9995", "line2": "2 35681  97.7151 146.2837 0002732  81.6258 278.5262 14.74951002879234"}}, "geometry": {"type": "Point", "coordinates": [-30.344440756064373, 22.0623747581464]}}, {"type": "Feature", "properties": {"norad_id": 35682, "name": "DUBAISAT-1", "group": "resource", "lat": 81.24006392800763, "lon": 2.088260273293737, "alt_km": 643.8339309504172, "timestamp": "2025-12-11T20:41:14.743965+00:00", "meta": {"OBJECT_NAME": "DUBAISAT-1", "OBJECT_ID": "2009-041B", "EPOCH": "2025-12-11T15:22:44.011488", "MEAN_MOTION": 14.74599442, "ECCENTRICITY": 0.00096284, "INCLINATION": 97.9787, "RA_OF_ASC_NODE": 116.3366, "ARG_OF_PERICENTER": 318.4291, "MEAN_ANOMALY": 41.6184, "EPHEMERIS_TYPE": 0, "CLASSIFICATION_TYPE": "U", "NORAD_CAT_ID": 35682, "ELEMENT_SET_NO": 999, "REV_AT_EPOCH": 87745, "BSTAR": 0.00034385951, "MEAN_MOTION_DOT": 2.243e-05, "MEAN_MOTION_DDOT": 0}, "tle": {"line1": "1 35682U 09041B   25345.64078717  .00002243  00000+0  34386-3 0  9994", "line2": "2 35682  97.9787 116.3366 0009628 318.4291  41.6184 14.74599442877456"}}, "geometry": {"type": "Point", "coordinates": [2.088260273293737, 81.24006392800763]}}, {"type": "Feature", "properties": {"norad_id": 35931, "name": "OCEANSAT-2", "group": "resource", "lat": 31.681175937520283, "lon": 171.67136892109502, "alt_km": 895.3789077009778, "timestamp": "2025-12-11T20:41:14.743975+00:00", "meta": {"OBJECT_NAME": "OCEANSAT-2", "OBJECT_ID": "2009-051A", "EPOCH": "2025-12-11T14:50:15.834048", "MEAN_MOTION": 13.99624891, "ECCENTRICITY": 0.00162512, "INCLINATION": 98.2224, "RA_OF_ASC_NODE": 346.3327, "ARG_OF_PERICENTER": 47.9976, "MEAN_ANOMALY": 312.2571, "EPHEMERIS_TYPE": 0, "CLASSIFICATION_TYPE": "U", "NORAD_CAT_ID": 35931, "ELEMENT_SET_NO": 999, "REV_AT_EPOCH": 85309, "BSTAR": -7.5338967e-05, "MEAN_MOTION_DOT": -1.48e-06, "MEAN_MOTION_DDOT": 0}, "tle": {"line1": "1 35931U 09051A   25345.61823882 -.00000148  00000+0 -75339-4 0  9998", "line2": "2 35931  98.2224 346.3327 0016251  47.9976 312.2571 13.99624891853093"}}, "geometry": {"type": "Point", "coordinates": [171.67136892109502, 31.681175937520283]}}, {"type": "Feature", "properties": {"norad_id": 35946, "name": "WORLDVIEW-2 (WV-2)", "group": "resource", "lat": 30.772662834851793, "lon": -117.94752429341324, "alt_km": 763.9032117325887, "timestamp": "2025-12-11T20:41:14.743986+00:00", "meta": {"OBJECT_NAME": "WORLDVIEW-2 (WV-2)", "OBJECT_ID": "2009-055A", "EPOCH": "2025-12-11T14:59:14.178624", "MEAN_MOTION": 14.37652058, "ECCENTRICITY": 0.00053131, "INCLINATION": 98.4761, "RA_OF_ASC_NODE": 56.7239, "ARG_OF_PERICENTER": 69.6876, "MEAN_ANOMALY": 290.4881, "EPHEMERIS_TYPE": 0, "CLASSIFICATION_TYPE": "U", "NORAD_CAT_ID": 35946, "ELEMENT_SET_NO": 999, "REV_AT_EPOCH": 84869, "BSTAR": 0.00010969505, "MEAN_MOTION_DOT": 2.86e-06, "MEAN_MOTION_DDOT": 0}, "tle": {"line1": "1 35946U 09055A   25345.62446966  .00000286  00000+0  10970-3 0  9993", "line2": "2 35946  98.4761  56.7239 0005313  69.6876 290.4881 14.37652058848698"}}, "geometry": {"type": "Point", "coordinates": [-117.94752429341324, 30.772662834851793]}}, {"type": "Feature", "properties": {"norad_id": 36036, "name": "SMOS", "group": "resource", "lat": 2.056343763280591, "lon": -8.771463081584885, "alt_km": 762.0880853472745, "timestamp": "2025-12-11T20:41:14.743996+00:00", "meta": {"OBJECT_NAME": "SMOS", "OBJECT_ID": "2009-059A", "EPOCH": "2025-12-11T11:31:28.732224", "MEAN_MOTION": 14.39739805, "ECCENTRICITY": 0.00011031, "INCLINATION": 98.438, "RA_OF_ASC_NODE": 170.5472, "ARG_OF_PERICENTER": 85.0152, "MEAN_ANOMALY": 275.1162, "EPHEMERIS_TYPE": 0, "CLASSIFICATION_TYPE": "U", "NORAD_CAT_ID": 36036, "ELEMENT_SET_NO": 999, "REV_AT_EPOCH": 84644, "BSTAR": 0.0002199024, "MEAN_MOTION_DOT": 6.45e-06, "MEAN_MOTION_DDOT": 0}, "tle": {"line1": "1 36036U 09059A   25345.48019366  .00000645  00000+0  21990-3 0  9995", "line2": "2 36036  98.4380 170.5472 0001103  85.0152 275.1162 14.39739805846443"}}, "geometry": {"type": "Point", "coordinates": [-8.771463081584885, 2.056343763280591]}}, {"type": "Feature", "properties": {"norad_id": 36110, "name": "YAOGAN-7", "group": "resource", "lat": -61.69364005597515, "lon": 32.4265521823897, "alt_km": 631.3837977316771, "timestamp": "2025-12-11T20:41:14.744006+00:00", "meta": {"OBJECT_NAME": "YAOGAN-7", "OBJECT_ID": "2009-069A", "EPOCH": "2025-12-11T14:42:54.355104", "MEAN_MOTION": 14.77729937, "ECCENTRICITY": 0.00233975, "INCLINATION": 98.0301, "RA_OF_ASC_NODE": 227.3742, "ARG_OF_PERICENTER": 285.1322, "MEAN_ANOMALY": 74.7301, "EPHEMERIS_TYPE": 0, "CLASSIFICATION_TYPE": "U", "NORAD_CAT_ID": 36110, "ELEMENT_SET_NO": 999, "REV_AT_EPOCH": 86192, "BSTAR": 0.00015791372, "MEAN_MOTION_DOT": 1.083e-05, "MEAN_MOTION_DDOT": 0}, "tle": {"line1": "1 36110U 09069A   25345.61312911  .00001083  00000+0  15791-3 0  9995", "line2": "2 36110  98.0301 227.3742 0023397 285.1322  74.7301 14.77729937861922"}}, "geometry": {"type": "Point", "coordinates": [32.4265521823897, -61.69364005597515]}}, {"type": "Feature", "properties": {"norad_id": 36605, "name": "TANDEM-X", "group": "resource", "lat": -2.176481399937351, "lon": -8.46015857403324, "alt_km": 511.6033277357137, "timestamp": "2025-12-11T20:41:14.744016+00:00", "meta": {"OBJECT_NAME": "TANDEM-X", "OBJECT_ID": "2010-030A", "EPOCH": "2025-12-11T11:12:43.510464", "MEAN_MOTION": 15.19157824, "ECCENTRICITY": 0.00018635, "INCLINATION": 97.4452, "RA_OF_ASC_NODE": 350.866, "ARG_OF_PERICENTER": 82.9447, "MEAN_ANOMALY": 277.1999, "EPHEMERIS_TYPE": 0, "CLASSIFICATION_TYPE": "U", "NORAD_CAT_ID": 36605, "ELEMENT_SET_NO": 999, "REV_AT_EPOCH": 85814, "BSTAR": 0.00012772132, "MEAN_MOTION_DOT": 2.617e-05, "MEAN_MOTION_DDOT": 0}, "tle": {"line1": "1 36605U 10030A   25345.46717026  .00002617  00000+0  12772-3 0  9993", "line2": "2 36605  97.4452 350.8660 0001863  82.9447 277.1999 15.19157824858146"}}, "geometry": {"type": "Point", "coordinates": [-8.46015857403324, -2.176481399937351]}}, {"type": "Feature", "properties": {"norad_id": 36795, "name": "CARTOSAT-2B", "group": "resource", "lat": 12.421481660135825, "lon": -143.35221579737484, "alt_km": 634.2457561800975, "timestamp": "2025-12-11T20:41:14.744025+00:00", "meta": {"OBJECT_NAME": "CARTOSAT-2B", "OBJECT_ID": "2010-035A", "EPOCH": "2025-12-11T16:41:10.776768", "MEAN_MOTION": 14.78719233, "ECCENTRICITY": 0.0012733, "INCLINATION": 97.7856, "RA_OF_ASC_NODE": 34.7596, "ARG_OF_PERICENTER": 80.3267, "MEAN_ANOMALY": 279.9382, "EPHEMERIS_TYPE": 0, "CLASSIFICATION_TYPE": "U", "NORAD_CAT_ID": 36795, "ELEMENT_SET_NO": 999, "REV_AT_EPOCH": 83214, "BSTAR": 0.00017903, "MEAN_MOTION_DOT": 1.265e-05, "MEAN_MOTION_DDOT": 0}, "tle": {"line1": "1 36795U 10035A   25345.69526362  .00001265  00000+0  17903-3 0  9993", "line2": "2 36795  97.7856  34.7596 0012733  80.3267 279.9382 14.78719233832143"}}, "geometry": {"type": "Point", "coordinates": [-143.35221579737484, 12.421481660135825]}}, {"type": "Feature", "properties": {"norad_id": 36834, "name": "YAOGAN-10", "group": "resource", "lat": -48.2642809479584, "lon": 176.71782582181893, "alt_km": 622.5858983204853, "timestamp": "2025-12-11T20:41:14.744054+00:00", "meta": {"OBJECT_NAME": "YAOGAN-10", "OBJECT_ID": "2010-038A", "EPOCH": "2025-12-11T15:16:47.747136", "MEAN_MOTION": 14.84601252, "ECCENTRICITY": 0.00015446, "INCLINATION": 97.9145, "RA_OF_ASC_NODE": 5.4656, "ARG_OF_PERICENTER": 83.8793, "MEAN_ANOMALY": 21.4495, "EPHEMERIS_TYPE": 0, "CLASSIFICATION_TYPE": "U", "NORAD_CAT_ID": 36834, "ELEMENT_SET_NO": 999, "REV_AT_EPOCH": 82937, "BSTAR": 0.00045370515, "MEAN_MOTION_DOT": 3.779e-05, "MEAN_MOTION_DDOT": 0}, "tle": {"line1": "1 36834U 10038A   25345.63666374  .00003779  00000+0  45371-3 0  9994", "line2": "2 36834  97.9145   5.4656 0001544  83.8793  21.4495 14.84601252829376"}}, "geometry": {"type": "Point", "coordinates": [176.71782582181893, -48.2642809479584]}}]}